LEMUR-1                 
1 40044U 14033AL  26190.39068934  .00001258  00000+0  14974-3 0  9996
2 40044  97.7901 339.7062 0048283   7.0442 353.1441 14.85326036648769
LEMUR-2-GREENBERG       
1 42837U 17042N   26190.49536315  .00011532  00000+0  37497-3 0  9996
2 42837  97.3831  11.0293 0007135 283.6729  76.3718 15.32031511491802
LEMUR-2-ANDIS           
1 42838U 17042P   26190.73271360  .00015725  00000+0  45347-3 0  9991
2 42838  97.3683  11.5304 0007099 281.4571  78.5875 15.35772741491916
LEMUR-2-MONSON          
1 42839U 17042Q   26190.74923673  .00009654  00000+0  34886-3 0  9994
2 42839  97.4092  11.2195 0005125 270.2225  89.8427 15.28660176491612
LEMUR-2-FURIAUS         
1 42840U 17042R   26190.76592409  .00012826  00000+0  43013-3 0  9994
2 42840  97.3780   9.2029 0006412 351.0661   9.0465 15.31011310491667
LEMUR-2-PETERG          
1 42841U 17042S   26190.46965602  .00016921  00000+0  50201-3 0  9998
2 42841  97.3999  15.5513 0002949 247.6478 112.4453 15.34883639491856
LEMUR-2-DEMBITZ         
1 42842U 17042T   26190.45880315  .00012959  00000+0  43497-3 0  9991
2 42842  97.3833  11.9375 0005112 300.3948  59.6787 15.30988716491753
LEMUR-2-ZACHARY         
1 42845U 17042W   26190.83151952  .00040627  00000+0  66596-3 0  9992
2 42845  97.3589  22.9819 0002379 275.3054  84.7927 15.52354875492719
LEMUR-2-AMANDA-SVANTE   
1 48269U 21034B   26191.17346260  .00026374  00000+0  75899-3 0  9999
2 48269  97.5753 270.0872 0004264 154.7454 205.3998 15.35747851284588
LEMUR-2-SPECIAL-K       
1 48273U 21034F   26190.48357970  .00187516  00000+0  13703-2 0  9998
2 48273  97.5638 279.0810 0006094 220.1944 139.8869 15.72652165285180
LEMUR-2-EMBRIONOVIS     
1 56970U 23084AQ  26190.39017906  .00010497  00000+0  28165-3 0  9992
2 56970  97.6309 335.4539 0007851 228.8469 131.2098 15.38126462171095
LEMUR-2-DEVERILL-M-T    
1 57391U 23100F   26188.69846859  .00016121  00000+0  39570-3 0  9998
2 57391  99.4460 233.3957 0004797 329.3522  30.7437 15.40821036164403
LEMUR-2-BASS            
1 58259U 23174D   26191.29007491  .00013358  00000+0  29574-3 0  9996
2 58259  97.3844 276.3364 0007892  92.7720 267.4432 15.43883235148924
LEMUR-2-JK0903EM1407    
1 58336U 23174CJ  26191.22189569  .00022366  00000+0  36115-3 0  9990
2 58336  97.3919 282.3605 0004096  49.2620 310.8988 15.52887831149305
LEMUR-2-MJR092620       
1 58340U 23174CN  26190.04617205  .00014182  00000+0  29527-3 0  9993
2 58340  97.3971 280.4893 0005891  50.7251 309.4519 15.45702331149023
LEMUR-2-NIMBUS2000      
1 58899U 24022A   26190.48942632  .00016512  00000+0  40228-3 0  9998
2 58899  97.4097  40.7823 0009338  47.1947 313.0083 15.40947835135706
